STARLINK-1777           
1 47122U 20088A   26055.50002314  .00025664  00000+0  47012-3 0  9996
2 47122  53.0544 347.0096 0001052 118.3669 223.8903 15.49176323  5935
STARLINK-1812           
1 47126U 20088E   26055.11403835  .00026876  00000+0  14725-2 0  9990
2 47126  53.0797   1.3307 0003077  84.2773 275.8571 15.14041168289819
STARLINK-1843           
1 47133U 20088M   26055.50002314  .00189849  00000+0  98478-3 0  9996
2 47133  53.0468 309.6709 0000581  56.3053  16.8851 15.79955207  6001
STARLINK-1845           
1 47135U 20088P   26055.09215213  .00039774  00000+0  65940-3 0  9995
2 47135  53.0545 342.9380 0001688 117.5078 242.6102 15.51774263290060
STARLINK-1856           
1 47143U 20088X   26055.50002314  .00067486  00000+0  13291-2 0  9998
2 47143  53.0542 336.3028 0008970 101.9920 236.4880 15.46591954  5882
STARLINK-1871           
1 47157U 20088AM  26055.45669743  .00000603  00000+0  32475-4 0  9997
2 47157  53.1587 357.8347 0001090  90.4585 269.6540 15.30187530289894
STARLINK-1873           
1 47158U 20088AN  26055.49458078  .00109322  00000+0  16144-2 0  9990
2 47158  53.0514 332.7315 0010732  97.9008 262.3220 15.54469182290244
STARLINK-1876           
1 47161U 20088AR  26055.49717743  .00107463  00000+0  15208-2 0  9995
2 47161  53.0518 335.9316 0006825 106.5189 253.6572 15.55674755290207
STARLINK-1888           
1 47171U 20088BB  26055.20321808  .00037118  00000+0  74209-3 0  9994
2 47171  53.0552 343.9147 0005534 104.6295 255.5326 15.46446001290063
STARLINK-1912           
1 47178U 20088BJ  26055.21028109  .00094072  00000+0  14796-2 0  9996
2 47178  53.0542 346.5363 0009486 103.0943 257.1125 15.52817717290025
STARLINK-1913           
1 47179U 20088BK  26055.50002314 -.00011065  00000+0 -36165-3 0  9997
2 47179  53.1595   8.3219 0001724 112.3940 352.7877 15.30229259  5669
STARLINK-2017           
1 47351U 21005C   26055.50962396 -.00000725  00000+0 -12351-4 0  9997
2 47351  53.1595  74.8879 0001457  85.8017 274.3151 15.30186275281708
STARLINK-2034           
1 47352U 21005D   26055.37022679  .00000556  00000+0  30917-4 0  9992
2 47352  53.1598 114.6115 0001370 100.4829 259.6326 15.30187142281138
STARLINK-2045           
1 47353U 21005E   26055.42159722 -.00000057  00000+0  10202-4 0  9991
2 47353  53.1596  62.2869 0001204  59.5800 300.5319 15.30180912281877
STARLINK-2046           
1 47354U 21005F   26055.50002314  .00795070  00000+0  25378-1 0  9997
2 47354  53.1566  85.2282 0002232  94.7234 265.6404 15.29513953  5821
STARLINK-2047           
1 47355U 21005G   26055.51960178  .00038719  00000+0  25836-2 0  9990
2 47355  53.0551  70.7392 0001261  99.3242 260.7889 15.06691904281756
STARLINK-2049           
1 47356U 21005H   26055.49961192 -.00000467  00000+0 -12485-4 0  9994
2 47356  53.0540  90.8317 0001496  88.4267 271.6894 15.06390953281477
