[{"OBJECT_NAME":"STARLINK-1777","OBJECT_ID":"2020-088A","EPOCH":"2026-02-24T12:00:01.999296","MEAN_MOTION":15.49176323,"ECCENTRICITY":0.0001052,"INCLINATION":53.0544,"RA_OF_ASC_NODE":347.0096,"ARG_OF_PERICENTER":118.3669,"MEAN_ANOMALY":223.8903,"EPHEMERIS_TYPE":0,"CLASSIFICATION_TYPE":"U","NORAD_CAT_ID":47122,"ELEMENT_SET_NO":999,"REV_AT_EPOCH":593,"BSTAR":0.00047012,"MEAN_MOTION_DOT":0.00025664,"MEAN_MOTION_DDOT":0},{"OBJECT_NAME":"STARLINK-1812","OBJECT_ID":"2020-088E","EPOCH":"2026-02-24T02:44:12.913440","MEAN_MOTION":15.14041168,"ECCENTRICITY":0.00030773,"INCLINATION":53.0797,"RA_OF_ASC_NODE":1.3307,"ARG_OF_PERICENTER":84.2773,"MEAN_ANOMALY":275.8571,"EPHEMERIS_TYPE":0,"CLASSIFICATION_TYPE":"U","NORAD_CAT_ID":47126,"ELEMENT_SET_NO":999,"REV_AT_EPOCH":28981,"BSTAR":0.0014724553,"MEAN_MOTION_DOT":0.00026876,"MEAN_MOTION_DDOT":0},{"OBJECT_NAME":"STARLINK-1843","OBJECT_ID":"2020-088M","EPOCH":"2026-02-24T12:00:01.999296","MEAN_MOTION":15.79955207,"ECCENTRICITY":5.81e-5,"INCLINATION":53.0468,"RA_OF_ASC_NODE":309.6709,"ARG_OF_PERICENTER":56.3053,"MEAN_ANOMALY":16.8851,"EPHEMERIS_TYPE":0,"CLASSIFICATION_TYPE":"U","NORAD_CAT_ID":47133,"ELEMENT_SET_NO":999,"REV_AT_EPOCH":600,"BSTAR":0.00098478,"MEAN_MOTION_DOT":0.00189849,"MEAN_MOTION_DDOT":0},{"OBJECT_NAME":"STARLINK-1845","OBJECT_ID":"2020-088P","EPOCH":"2026-02-24T02:12:41.944032","MEAN_MOTION":15.51774263,"ECCENTRICITY":0.0001688,"INCLINATION":53.0545,"RA_OF_ASC_NODE":342.938,"ARG_OF_PERICENTER":117.5078,"MEAN_ANOMALY":242.6102,"EPHEMERIS_TYPE":0,"CLASSIFICATION_TYPE":"U","NORAD_CAT_ID":47135,"ELEMENT_SET_NO":999,"REV_AT_EPOCH":29006,"BSTAR":0.00065940071,"MEAN_MOTION_DOT":0.00039774,"MEAN_MOTION_DDOT":0},{"OBJECT_NAME":"STARLINK-1856","OBJECT_ID":"2020-088X","EPOCH":"2026-02-24T12:00:01.999296","MEAN_MOTION":15.46591954,"ECCENTRICITY":0.000897,"INCLINATION":53.0542,"RA_OF_ASC_NODE":336.3028,"ARG_OF_PERICENTER":101.992,"MEAN_ANOMALY":236.488,"EPHEMERIS_TYPE":0,"CLASSIFICATION_TYPE":"U","NORAD_CAT_ID":47143,"ELEMENT_SET_NO":999,"REV_AT_EPOCH":588,"BSTAR":0.0013291,"MEAN_MOTION_DOT":0.00067486,"MEAN_MOTION_DDOT":0},{"OBJECT_NAME":"STARLINK-1871","OBJECT_ID":"2020-088AM","EPOCH":"2026-02-24T10:57:38.657952","MEAN_MOTION":15.3018753,"ECCENTRICITY":0.000109,"INCLINATION":53.1587,"RA_OF_ASC_NODE":357.8347,"ARG_OF_PERICENTER":90.4585,"MEAN_ANOMALY":269.654,"EPHEMERIS_TYPE":0,"CLASSIFICATION_TYPE":"U","NORAD_CAT_ID":47157,"ELEMENT_SET_NO":999,"REV_AT_EPOCH":28989,"BSTAR":3.2475e-5,"MEAN_MOTION_DOT":6.03e-6,"MEAN_MOTION_DDOT":0},{"OBJECT_NAME":"STARLINK-1873","OBJECT_ID":"2020-088AN","EPOCH":"2026-02-24T11:52:11.779392","MEAN_MOTION":15.54469182,"ECCENTRICITY":0.0010732,"INCLINATION":53.0514,"RA_OF_ASC_NODE":332.7315,"ARG_OF_PERICENTER":97.9008,"MEAN_ANOMALY":262.322,"EPHEMERIS_TYPE":0,"CLASSIFICATION_TYPE":"U","NORAD_CAT_ID":47158,"ELEMENT_SET_NO":999,"REV_AT_EPOCH":29024,"BSTAR":0.0016144,"MEAN_MOTION_DOT":0.00109322,"MEAN_MOTION_DDOT":0},{"OBJECT_NAME":"STARLINK-1876","OBJECT_ID":"2020-088AR","EPOCH":"2026-02-24T11:55:56.129952","MEAN_MOTION":15.55674755,"ECCENTRICITY":0.0006825,"INCLINATION":53.0518,"RA_OF_ASC_NODE":335.9316,"ARG_OF_PERICENTER":106.5189,"MEAN_ANOMALY":253.6572,"EPHEMERIS_TYPE":0,"CLASSIFICATION_TYPE":"U","NORAD_CAT_ID":47161,"ELEMENT_SET_NO":999,"REV_AT_EPOCH":29020,"BSTAR":0.0015208,"MEAN_MOTION_DOT":0.00107463,"MEAN_MOTION_DDOT":0},{"OBJECT_NAME":"STARLINK-1888","OBJECT_ID":"2020-088BB","EPOCH":"2026-02-24T04:52:38.042112","MEAN_MOTION":15.46446001,"ECCENTRICITY":0.0005534,"INCLINATION":53.0552,"RA_OF_ASC_NODE":343.9147,"ARG_OF_PERICENTER":104.6295,"MEAN_ANOMALY":255.5326,"EPHEMERIS_TYPE":0,"CLASSIFICATION_TYPE":"U","NORAD_CAT_ID":47171,"ELEMENT_SET_NO":999,"REV_AT_EPOCH":29006,"BSTAR":0.00074209,"MEAN_MOTION_DOT":0.00037118,"MEAN_MOTION_DDOT":0},{"OBJECT_NAME":"STARLINK-1912","OBJECT_ID":"2020-088BJ","EPOCH":"2026-02-24T05:02:48.286176","MEAN_MOTION":15.52817717,"ECCENTRICITY":0.0009486,"INCLINATION":53.0542,"RA_OF_ASC_NODE":346.5363,"ARG_OF_PERICENTER":103.0943,"MEAN_ANOMALY":257.1125,"EPHEMERIS_TYPE":0,"CLASSIFICATION_TYPE":"U","NORAD_CAT_ID":47178,"ELEMENT_SET_NO":999,"REV_AT_EPOCH":29002,"BSTAR":0.0014796,"MEAN_MOTION_DOT":0.00094072,"MEAN_MOTION_DDOT":0},{"OBJECT_NAME":"STARLINK-1913","OBJECT_ID":"2020-088BK","EPOCH":"2026-02-24T12:00:01.999296","MEAN_MOTION":15.30229259,"ECCENTRICITY":0.0001724,"INCLINATION":53.1595,"RA_OF_ASC_NODE":8.3219,"ARG_OF_PERICENTER":112.394,"MEAN_ANOMALY":352.7877,"EPHEMERIS_TYPE":0,"CLASSIFICATION_TYPE":"U","NORAD_CAT_ID":47179,"ELEMENT_SET_NO":999,"REV_AT_EPOCH":566,"BSTAR":-0.00036165,"MEAN_MOTION_DOT":-0.00011065,"MEAN_MOTION_DDOT":0},{"OBJECT_NAME":"STARLINK-2017","OBJECT_ID":"2021-005C","EPOCH":"2026-02-24T12:13:51.510144","MEAN_MOTION":15.30186275,"ECCENTRICITY":0.0001457,"INCLINATION":53.1595,"RA_OF_ASC_NODE":74.8879,"ARG_OF_PERICENTER":85.8017,"MEAN_ANOMALY":274.3151,"EPHEMERIS_TYPE":0,"CLASSIFICATION_TYPE":"U","NORAD_CAT_ID":47351,"ELEMENT_SET_NO":999,"REV_AT_EPOCH":28170,"BSTAR":-1.2351e-5,"MEAN_MOTION_DOT":-7.25e-6,"MEAN_MOTION_DDOT":0},{"OBJECT_NAME":"STARLINK-2034","OBJECT_ID":"2021-005D","EPOCH":"2026-02-24T08:53:07.594656","MEAN_MOTION":15.30187142,"ECCENTRICITY":0.000137,"INCLINATION":53.1598,"RA_OF_ASC_NODE":114.6115,"ARG_OF_PERICENTER":100.4829,"MEAN_ANOMALY":259.6326,"EPHEMERIS_TYPE":0,"CLASSIFICATION_TYPE":"U","NORAD_CAT_ID":47352,"ELEMENT_SET_NO":999,"REV_AT_EPOCH":28113,"BSTAR":3.0917e-5,"MEAN_MOTION_DOT":5.56e-6,"MEAN_MOTION_DDOT":0},{"OBJECT_NAME":"STARLINK-2045","OBJECT_ID":"2021-005E","EPOCH":"2026-02-24T10:07:05.999808","MEAN_MOTION":15.30180912,"ECCENTRICITY":0.0001204,"INCLINATION":53.1596,"RA_OF_ASC_NODE":62.2869,"ARG_OF_PERICENTER":59.58,"MEAN_ANOMALY":300.5319,"EPHEMERIS_TYPE":0,"CLASSIFICATION_TYPE":"U","NORAD_CAT_ID":47353,"ELEMENT_SET_NO":999,"REV_AT_EPOCH":28187,"BSTAR":1.0202e-5,"MEAN_MOTION_DOT":-5.7e-7,"MEAN_MOTION_DDOT":0},{"OBJECT_NAME":"STARLINK-2046","OBJECT_ID":"2021-005F","EPOCH":"2026-02-24T12:00:01.999296","MEAN_MOTION":15.29513953,"ECCENTRICITY":0.0002232,"INCLINATION":53.1566,"RA_OF_ASC_NODE":85.2282,"ARG_OF_PERICENTER":94.7234,"MEAN_ANOMALY":265.6404,"EPHEMERIS_TYPE":0,"CLASSIFICATION_TYPE":"U","NORAD_CAT_ID":47354,"ELEMENT_SET_NO":999,"REV_AT_EPOCH":582,"BSTAR":0.025378,"MEAN_MOTION_DOT":0.0079507,"MEAN_MOTION_DDOT":0},{"OBJECT_NAME":"STARLINK-2047","OBJECT_ID":"2021-005G","EPOCH":"2026-02-24T12:28:13.593792","MEAN_MOTION":15.06691904,"ECCENTRICITY":0.0001261,"INCLINATION":53.0551,"RA_OF_ASC_NODE":70.7392,"ARG_OF_PERICENTER":99.3242,"MEAN_ANOMALY":260.7889,"EPHEMERIS_TYPE":0,"CLASSIFICATION_TYPE":"U","NORAD_CAT_ID":47355,"ELEMENT_SET_NO":999,"REV_AT_EPOCH":28175,"BSTAR":0.0025836,"MEAN_MOTION_DOT":0.00038719,"MEAN_MOTION_DDOT":0},{"OBJECT_NAME":"STARLINK-2049","OBJECT_ID":"2021-005H","EPOCH":"2026-02-24T11:59:26.469888","MEAN_MOTION":15.06390953,"ECCENTRICITY":0.0001496,"INCLINATION":53.054,"RA_OF_ASC_NODE":90.8317,"ARG_OF_PERICENTER":88.4267,"MEAN_ANOMALY":271.6894,"EPHEMERIS_TYPE":0,"CLASSIFICATION_TYPE":"U","NORAD_CAT_ID":47356,"ELEMENT_SET_NO":999,"REV_AT_EPOCH":28147,"BSTAR":-1.2485e-5,"MEAN_MOTION_DOT":-4.67e-6,"MEAN_MOTION_DDOT":0}]
